KUIPER-00027            
1 63740U 25088S   25268.91670139  .00028162  00000+0  37172-2 0  9992
2 63740  51.8995 103.9655 0004358 352.3089 280.9940 14.79820102  4288
KUIPER-00028            
1 63741U 25088T   25268.91670139  .00025833  00000+0  30797-2 0  9991
2 63741  51.8973 101.9480 0003845  15.8943 156.5805 14.84118991  5460
KUIPER-00029            
1 63742U 25088U   25268.91670139 -.01734306  00000+0 -19034+0 0  9995
2 63742  51.8941 100.1913 0007618 308.9238 224.0451 14.91044224  5602
KUIPER-00030            
1 63743U 25088V   25268.80370894 -.00006317  00000+0 -79975-3 0  9996
2 63743  51.9005 119.6562 0013258 245.8815 114.0761 14.79883191 23216
KUIPER-00031            
1 63744U 25088W   25268.75121635  .00002102  00000+0  30497-3 0  9990
2 63744  51.8997 105.9727 0003062 274.5701  85.4912 14.79895135 23111
KUIPER-00032            
1 63745U 25088X   25268.94714423  .00021314  00000+0  72407-3 0  9998
2 63745  51.8705  96.4862 0004631 243.7986 116.2522 15.30416387 24262
KUIPER-00033            
1 63746U 25088Y   25267.03007966  .00009273  00000+0  12426-2 0  9999
2 63746  51.8988 143.5580 0003693  11.0578 349.0465 14.79969701 22925
KUIPER-00034            
1 63747U 25088Z   25268.91670139 -.01473862  00000+0 -14421+0 0  9992
2 63747  51.8906  97.8465 0002138 229.2129 166.3490 14.95040051  5584
